TEVEL2-6                
1 63215U 25052F   26068.64958975  .00021046  00000+0  70909-3 0  9996
2 63215  97.4016 325.0381 0004769  95.6604 264.5181 15.30760889 54861
STARLINK-36048          
1 66603U 25270R   26068.00252746  .00025947  00000+0  94906-3 0  9992
2 66603  42.9969  59.8093 0000627 273.9101  86.1679 15.27580914 17506
